NORAD_CAT_ID,OBJECT_NAME,OBJECT_TYPE,EPOCH,MEAN_MOTION,ECCENTRICITY,INCLINATION,RA_OF_ASC_NODE,ARG_OF_PERICENTER,MEAN_ANOMALY,BSTAR,MEAN_MOTION_DOT,MEAN_MOTION_DDOT,TLE_LINE0,TLE_LINE1,TLE_LINE2,SEMIMAJOR_AXIS,PERIOD,APOGEE,PERIGEE,DECAYED
50157.0,STARLINK-3313,PAYLOAD,2022-05-05 22:00:00,15.08856351,0.0002615,53.2181,80.916,41.2559,140.1872,-0.0026915,-0.00042891,0.0,0 STARLINK-3313,1 50157U 21125B   22125.91667824 -.00042891  00000-0 -26915-2 0  9995,2 50157  53.2181  80.9160 0002615  41.2559 140.1872 15.08856351  3563,6917.83,95.437,541.504,537.886,0.0
50157.0,STARLINK-3313,PAYLOAD,2022-05-06 14:00:01,15.08835799,0.0002648999999999,53.2168,77.9237,38.9729,165.6386,-0.00070731,-0.00011527,0.0,0 STARLINK-3313,1 50157U 21125B   22126.58334491 -.00011527  00000-0 -70731-3 0  9998,2 50157  53.2168  77.9237 0002649  38.9729 165.6386 15.08835799 21541,6917.893,95.438,541.591,537.9259999999998,0.0
50157.0,STARLINK-3313,PAYLOAD,2022-05-06 22:00:00,15.08907157,0.0002689,53.2171,76.4191,43.4263,172.8227,-0.0084897,-0.00133171,0.0,0 STARLINK-3313,1 50157U 21125B   22126.91667824 -.00133171  00000-0 -84897-2 0  9991,2 50157  53.2171  76.4191 0002689  43.4263 172.8227 15.08907157 21593,6917.675,95.433,541.4,537.68,0.0
50157.0,STARLINK-3313,PAYLOAD,2022-05-07 06:00:02,15.08816551,0.0002833,53.2171,74.9324,38.3196,189.6152,0.0025404,0.0004035,0.0,0 STARLINK-3313,1 50157U 21125B   22127.25002315  .00040350  00000-0  25404-2 0  9990,2 50157  53.2171  74.9324 0002833  38.3196 189.6152 15.08816551 21649,6917.9519999999975,95.439,541.7769999999998,537.857,0.0
50157.0,STARLINK-3313,PAYLOAD,2022-05-07 14:00:01,15.08854532,0.0002611,53.217,73.4345,39.656,199.8062,-0.0030573,-0.00048639,0.0,0 STARLINK-3313,1 50157U 21125B   22127.58334491 -.00048639  00000-0 -30573-2 0  9992,2 50157  53.2170  73.4345 0002611  39.6560 199.8062 15.08854532  3608,6917.8359999999975,95.437,541.507,537.895,0.0
50157.0,STARLINK-3313,PAYLOAD,2022-05-07 22:00:00,15.08837829,0.0002554,53.2172,71.9382,41.9904,209.0582,-0.00020213,-3.504e-05,0.0,0 STARLINK-3313,1 50157U 21125B   22127.91667824 -.00003504  00000-0 -20213-3 0  9991,2 50157  53.2172  71.9382 0002554  41.9904 209.0582 15.08837829 21744,6917.887,95.438,541.519,537.985,0.0
50157.0,STARLINK-3313,PAYLOAD,2022-05-08 14:00:01,15.08822743,0.0002519,53.2168,68.9454,39.8756,234.3566,-0.0008186,-0.00013287,0.0,0 STARLINK-3313,1 50157U 21125B   22128.58334491 -.00013287  00000-0 -81860-3 0  9990,2 50157  53.2168  68.9454 0002519  39.8756 234.3566 15.08822743  3592,6917.933000000001,95.439,541.5409999999998,538.056,0.0
50157.0,STARLINK-3313,PAYLOAD,2022-05-08 22:00:00,15.08834904,0.0002483,53.2169,67.4493,42.3112,243.4843,-0.00060748,-9.943e-05,0.0,0 STARLINK-3313,1 50157U 21125B   22128.91667824 -.00009943  00000-0 -60748-3 0  9992,2 50157  53.2169  67.4493 0002483  42.3112 243.4843 15.08834904  3608,6917.896,95.438,541.479,538.043,0.0
50157.0,STARLINK-3313,PAYLOAD,2022-05-09 04:00:00,15.08819225,0.0002672,53.2166,66.3283,39.8454,164.6432,0.001188,0.00018659,0.0,0 STARLINK-3313,1 50157U 21125B   22129.16667824  .00018659  00000-0  11880-2 0  9994,2 50157  53.2166  66.3283 0002672  39.8454 164.6432 15.08819225 21933,6917.944,95.439,541.6569999999998,537.96,0.0
50157.0,STARLINK-3313,PAYLOAD,2022-05-09 14:00:01,15.08837524,0.0002487,53.2163,64.4563,42.2044,266.8283,0.00020559,2.985e-05,0.0,0 STARLINK-3313,1 50157U 21125B   22129.58335648  .00002985  00000-0  20559-3 0  9995,2 50157  53.2163  64.4563 0002487  42.2044 266.8283 15.08837524  3602,6917.888000000001,95.438,541.4730000000002,538.0319999999998,0.0
50157.0,STARLINK-3313,PAYLOAD,2022-05-09 22:00:00,15.08857246,0.0002463,53.2164,62.9602,43.6185,276.9444,-0.002458,-0.00039215,0.0,0 STARLINK-3313,1 50157U 21125B   22129.91667824 -.00039215  00000-0 -24580-2 0  9991,2 50157  53.2164  62.9602 0002463  43.6185 276.9444 15.08857246  3597,6917.828,95.436,541.3969999999998,537.989,0.0
50157.0,STARLINK-3313,PAYLOAD,2022-05-10 06:00:00,15.08808493,0.0002634,53.2161,61.4652,39.7815,292.3801,0.0032663,0.00052036,0.0,0 STARLINK-3313,1 50157U 21125B   22130.25001157  .00052036  00000-0  32663-2 0  9996,2 50157  53.2161  61.4652 0002634  39.7815 292.3801 15.08808493 22094,6917.977,95.44,541.664,538.019,0.0
50157.0,STARLINK-3313,PAYLOAD,2022-05-10 14:00:01,15.08830754,0.0002451,53.2161,59.967,42.5969,301.1461,0.00058816,9.083e-05,0.0,0 STARLINK-3313,1 50157U 21125B   22130.58334491  .00009083  00000-0  58816-3 0  9995,2 50157  53.2161  59.9670 0002451  42.5969 301.1461 15.08830754  3595,6917.909000000002,95.438,541.469,538.078,0.0
50157.0,STARLINK-3313,PAYLOAD,2022-05-10 18:00:00,15.08841932,0.0002422,53.2161,59.2184,44.5353,125.0007,-0.00060083,-9.839e-05,0.0,0 STARLINK-3313,1 50157U 21125B   22130.75001157 -.00009839  00000-0 -60083-3 0  9994,2 50157  53.2161  59.2184 0002422  44.5353 125.0007 15.08841932 22179,6917.874,95.437,541.415,538.064,0.0
50157.0,STARLINK-3313,PAYLOAD,2022-05-11 22:00:00,15.0886015,0.0002542,53.2165,53.9819,44.2432,345.8358,-0.001169,-0.00018856,0.0,0 STARLINK-3313,1 50157U 21125B   22131.91667824 -.00018856  00000-0 -11690-2 0  9990,2 50157  53.2165  53.9819 0002542  44.2432 345.8358 15.08860150 22351,6917.819,95.436,541.442,537.925,0.0
50157.0,STARLINK-3313,PAYLOAD,2022-05-12 14:00:01,15.08828625,0.0002419,53.2168,50.9883,42.6683,10.6479,0.0021046,0.00033356,0.0,0 STARLINK-3313,1 50157U 21125B   22132.58334491  .00033356  00000-0  21046-2 0  9991,2 50157  53.2168  50.9883 0002419  42.6683  10.6479 15.08828625  1309,6917.915,95.438,541.4540000000002,538.107,0.0
50157.0,STARLINK-3313,PAYLOAD,2022-05-12 20:00:01,15.08867143,0.0002433,53.2172,49.8661,43.9535,288.0529,-0.0024186,-0.00038605,0.0,0 STARLINK-3313,1 50157U 21125B   22132.83334491 -.00038605  00000-0 -24186-2 0  9991,2 50157  53.2172  49.8661 0002433  43.9535 288.0529 15.08867143 22488,6917.797,95.436,541.346,537.979,0.0
50157.0,STARLINK-3313,PAYLOAD,2022-05-12 22:00:00,15.08860517,0.0002479,53.2171,49.4927,42.6834,22.229,-0.0024129,-0.00038508,0.0,0 STARLINK-3313,1 50157U 21125B   22132.91667824 -.00038508  00000-0 -24129-2 0  9998,2 50157  53.2171  49.4927 0002479  42.6834  22.2290 15.08860517  1305,6917.818,95.436,541.398,537.9680000000002,0.0
50157.0,STARLINK-3313,PAYLOAD,2022-05-13 14:00:01,15.08806425,0.0002323,53.2176,46.4992,40.2486,47.86600000000001,0.0017222,0.00027202,0.0,0 STARLINK-3313,1 50157U 21125B   22133.58334491  .00027202  00000-0  17222-2 0  9996,2 50157  53.2176  46.4992 0002323  40.2486  47.8660 15.08806425 22602,6917.983,95.44,541.455,538.241,0.0
50157.0,STARLINK-3313,PAYLOAD,2022-05-13 22:00:00,15.08832127,0.0002389,53.2179,45.0038,39.6273,60.0559,-0.0026189,-0.0004172,0.0,0 STARLINK-3313,1 50157U 21125B   22133.91667824 -.00041720  00000-0 -26189-2 0  9997,2 50157  53.2179  45.0038 0002389  39.6273  60.0559 15.08832127  1305,6917.904,95.438,541.422,538.117,0.0
50157.0,STARLINK-3313,PAYLOAD,2022-05-14 06:00:00,15.08799535,0.0002506,53.2177,43.5085,35.925,75.3269,0.0027225,0.0004326,0.0,0 STARLINK-3313,1 50157U 21125B   22134.25001157  .00043260  00000-0  27225-2 0  9997,2 50157  53.2177  43.5085 0002506  35.9250  75.3269 15.08799535 22702,6918.004,95.44,541.6030000000002,538.135,0.0
50157.0,STARLINK-3313,PAYLOAD,2022-05-14 14:00:01,15.08810488,0.0002275,53.218,42.0105,40.0191,82.8155,0.0035358,0.0005638999999999,0.0,0 STARLINK-3313,1 50157U 21125B   22134.58334491  .00056390  00000-0  35358-2 0  9997,2 50157  53.2180  42.0105 0002275  40.0191  82.8155 15.08810488  1308,6917.971,95.439,541.409,538.262,0.0
50157.0,STARLINK-3313,PAYLOAD,2022-05-14 22:00:00,15.0883394,0.000232,53.2177,40.5152,38.5478,95.8685,-0.00099253,-0.00016048,0.0,0 STARLINK-3313,1 50157U 21125B   22134.91667824 -.00016048  00000-0 -99253-3 0  9996,2 50157  53.2177  40.5152 0002320  38.5478  95.8685 15.08833940 22808,6917.899,95.438,541.369,538.159,0.0
50157.0,STARLINK-3313,PAYLOAD,2022-05-15 14:00:01,15.088181400000002,0.0002149,53.216,37.5217,38.0994,119.5572,0.0012369999999999,0.00019442,0.0,0 STARLINK-3313,1 50157U 21125B   22135.58335648  .00019442  00000-0  12370-2 0  9999,2 50157  53.2160  37.5217 0002149  38.0994 119.5572 15.08818140 22900,6917.946999999999,95.439,541.299,538.326,0.0
50157.0,STARLINK-3313,PAYLOAD,2022-05-15 22:00:00,15.08841948,0.0002259,53.2163,36.0266,37.4301,131.7441,-0.00083269,-0.00013517,0.0,0 STARLINK-3313,1 50157U 21125B   22135.91667824 -.00013517  00000-0 -83269-3 0  9995,2 50157  53.2163  36.0266 0002259  37.4301 131.7441 15.08841948  1302,6917.874,95.437,541.302,538.177,0.0
50157.0,STARLINK-3313,PAYLOAD,2022-05-16 14:00:01,15.08831522,0.0002115,53.2157,33.0327,38.7504,153.6317,-0.0003972,-6.603e-05,0.0,0 STARLINK-3313,1 50157U 21125B   22136.58334491 -.00006603  00000-0 -39720-3 0  9991,2 50157  53.2157  33.0327 0002115  38.7504 153.6317 15.08831522  1302,6917.906,95.438,541.234,538.308,0.0
50157.0,STARLINK-3313,PAYLOAD,2022-05-16 20:00:01,15.08839395,0.0002187,53.2159,31.9114,40.116,70.9535,-0.001564,-0.00025093,0.0,0 STARLINK-3313,1 50157U 21125B   22136.83334491 -.00025093  00000-0 -15640-2 0  9997,2 50157  53.2159  31.9114 0002187  40.1160  70.9535 15.08839395 23098,6917.882,95.438,541.26,538.234,0.0
50157.0,STARLINK-3313,PAYLOAD,2022-05-16 22:00:00,15.0882962,0.0002268,53.2158,31.5378,39.3983,164.5702,-0.00064354,-0.00010513,0.0,0 STARLINK-3313,1 50157U 21125B   22136.91667824 -.00010513  00000-0 -64354-3 0  9993,2 50157  53.2158  31.5378 0002268  39.3983 164.5702 15.08829620  1304,6917.9119999999975,95.438,541.346,538.2080000000002,0.0
50157.0,STARLINK-3313,PAYLOAD,2022-05-17 12:00:00,15.0882861,0.0002164,53.2152,28.91800000000001,40.6053,93.6372,0.0023771,0.00037735,0.0,0 STARLINK-3313,1 50157U 21125B   22137.50001157  .00037735  00000-0  23771-2 0  9990,2 50157  53.2152  28.9180 0002164  40.6053  93.6372 15.08828610 23191,6917.915,95.438,541.2769999999998,538.283,0.0
